[{"OBJECT_NAME":"STARLINK-2681","OBJECT_ID":"2021-040AP","EPOCH":"2026-03-10T00:00:02.999808","MEAN_MOTION":15.22826817,"ECCENTRICITY":0.00013659,"INCLINATION":53.1263,"RA_OF_ASC_NODE":189.7213,"ARG_OF_PERICENTER":84.1199,"MEAN_ANOMALY":307.7409,"EPHEMERIS_TYPE":0,"CLASSIFICATION_TYPE":"U","NORAD_CAT_ID":48465,"ELEMENT_SET_NO":999,"REV_AT_EPOCH":574,"BSTAR":0.066923917,"MEAN_MOTION_DOT":0.01734836,"MEAN_MOTION_DDOT":0},{"OBJECT_NAME":"TIANMU-1 04","OBJECT_ID":"2023-039B","EPOCH":"2026-03-09T21:40:01.610688","MEAN_MOTION":15.44618155,"ECCENTRICITY":0.00046689,"INCLINATION":97.5114,"RA_OF_ASC_NODE":238.3884,"ARG_OF_PERICENTER":96.2313,"MEAN_ANOMALY":263.9468,"EPHEMERIS_TYPE":0,"CLASSIFICATION_TYPE":"U","NORAD_CAT_ID":55974,"ELEMENT_SET_NO":999,"REV_AT_EPOCH":16550,"BSTAR":0.00043487013,"MEAN_MOTION_DOT":0.0002018,"MEAN_MOTION_DDOT":0}]
